NORAD_CAT_ID,OBJECT_NAME,OBJECT_TYPE,EPOCH,MEAN_MOTION,ECCENTRICITY,INCLINATION,RA_OF_ASC_NODE,ARG_OF_PERICENTER,MEAN_ANOMALY,BSTAR,MEAN_MOTION_DOT,MEAN_MOTION_DDOT,TLE_LINE0,TLE_LINE1,TLE_LINE2,SEMIMAJOR_AXIS,PERIOD,APOGEE,PERIGEE,DECAYED
53886.0,STARLINK-5028,PAYLOAD,2023-07-01 00:48:22,15.08837031,0.0001122,53.2178,55.6641,101.7713,258.3405,0.00013343,1.836e-05,0.0,0 STARLINK-5028,1 53886U 22119A   23182.03359492  .00001836  00000-0  13343-3 0  9991,2 53886  53.2178  55.6641 0001122 101.7713 258.3405 15.08837031 42910,6917.889,95.438,540.531,538.978,0.0
53886.0,STARLINK-5028,PAYLOAD,2023-07-02 08:36:05,15.0884059,9.68e-05,53.2172,49.7173,86.1895,273.9208,6.2581e-05,7.08e-06,0.0,0 STARLINK-5028,1 53886U 22119A   23183.35839698  .00000708  00000-0  62581-4 0  9994,2 53886  53.2172  49.7173 0000968  86.1895 273.9208 15.08840590 43113,6917.879,95.438,540.413,539.074,0.0
53886.0,STARLINK-5028,PAYLOAD,2023-07-02 21:19:09,15.08849415,0.0001015,53.2173,47.3379,83.0186,277.0922,0.0001108,1.476e-05,0.0,0 STARLINK-5028,1 53886U 22119A   23183.88831010  .00001476  00000-0  11080-3 0  9992,2 53886  53.2173  47.3379 0001015  83.0186 277.0922 15.08849415 43190,6917.852,95.437,540.419,539.014,0.0
53886.0,STARLINK-5028,PAYLOAD,2023-07-03 08:26:52,15.08840301,0.0001021,53.2175,45.2566,85.6748,274.436,5.2826e-05,5.53e-06,0.0,0 STARLINK-5028,1 53886U 22119A   23184.35199599  .00000553  00000-0  52826-4 0  9993,2 53886  53.2175  45.2566 0001021  85.6748 274.4360 15.08840301 43266,6917.879,95.438,540.451,539.038,0.0
53886.0,STARLINK-5028,PAYLOAD,2023-07-04 01:56:06,15.08848496,0.0001094,53.2177,41.985,86.5069,273.6048,0.00010829,1.436e-05,0.0,0 STARLINK-5028,1 53886U 22119A   23185.08063001  .00001436  00000-0  10829-3 0  9999,2 53886  53.2177  41.9850 0001094  86.5069 273.6048 15.08848496 43372,6917.854,95.437,540.476,538.963,0.0
53886.0,STARLINK-5028,PAYLOAD,2023-07-04 16:14:35,15.08838664,0.0001154,53.2174,39.3093,86.5985,273.5139,1.0388e-06,-2.71e-06,0.0,0 STARLINK-5028,1 53886U 22119A   23185.67679866 -.00000271  00000-0  10388-5 0  9995,2 53886  53.2174  39.3093 0001154  86.5985 273.5139 15.08838664 43469,6917.884,95.438,540.548,538.951,0.0
53886.0,STARLINK-5028,PAYLOAD,2023-07-05 01:46:53,15.08845956,0.0001121,53.2181,37.5245,94.4067,265.7053,1.3011e-05,-8.1e-07,0.0,0 STARLINK-5028,1 53886U 22119A   23186.07423217 -.00000081  00000-0  13011-4 0  9991,2 53886  53.2181  37.5245 0001121  94.4067 265.7053 15.08845956 43526,6917.862,95.437,540.503,538.952,0.0
53886.0,STARLINK-5028,PAYLOAD,2023-07-05 16:05:22,15.0883261,0.0001217,53.2179,34.8499,93.632,266.4812,3.931e-06,-2.25e-06,0.0,0 STARLINK-5028,1 53886U 22119A   23186.67040233 -.00000225  00000-0  39310-5 0  9991,2 53886  53.2179  34.8499 0001217  93.6320 266.4812 15.08832610 43617,6917.903,95.438,540.61,538.926,0.0
53886.0,STARLINK-5028,PAYLOAD,2023-07-06 23:53:04,15.08846363,0.0001068,53.2173,28.9013,92.3996,267.7118,0.00014422,2.009e-05,0.0,0 STARLINK-5028,1 53886U 22119A   23187.99519430  .00002009  00000-0  14422-3 0  9993,2 53886  53.2173  28.9013 0001068  92.3996 267.7118 15.08846363 43811,6917.861,95.437,540.465,538.987,0.0
53886.0,STARLINK-5028,PAYLOAD,2023-07-07 06:14:37,15.08842716,0.000104,53.2173,27.7125,95.3657,264.7453,7.7034e-05,9.39e-06,0.0,0 STARLINK-5028,1 53886U 22119A   23188.26015848  .00000939  00000-0  77034-4 0  9997,2 53886  53.2173  27.7125 0001040  95.3657 264.7453 15.08842716 43850,6917.872,95.437,540.457,539.018,0.0
53886.0,STARLINK-5028,PAYLOAD,2023-07-08 06:05:25,15.08835715,0.0001569,53.2155,23.2508,79.976,280.1409,2.8054e-06,-2.43e-06,0.0,0 STARLINK-5028,1 53886U 22119A   23189.25376274 -.00000243  00000-0  28054-5 0  9998,2 53886  53.2155  23.2508 0001569  79.9760 280.1409 15.08835715 44007,6917.893,95.438,540.844,538.673,0.0
53886.0,STARLINK-5028,PAYLOAD,2023-07-09 01:10:02,15.08844797,0.0001046,53.2168,19.6835,86.3302,273.781,9.3261e-05,1.197e-05,0.0,0 STARLINK-5028,1 53886U 22119A   23190.04863845  .00001197  00000-0  93261-4 0  9991,2 53886  53.2168  19.6835 0001046  86.3302 273.7810 15.08844797 44124,6917.866,95.437,540.454,539.007,0.0
53886.0,STARLINK-5028,PAYLOAD,2023-07-09 18:39:17,15.08839391,0.0001069,53.2169,16.4121,85.6211,274.4903,3.5082e-05,2.71e-06,0.0,0 STARLINK-5028,1 53886U 22119A   23190.77728401  .00000271  00000-0  35082-4 0  9998,2 53886  53.2169  16.4121 0001069  85.6211 274.4903 15.08839391 44231,6917.882,95.438,540.487,539.008,0.0
53886.0,STARLINK-5028,PAYLOAD,2023-07-10 23:16:13,15.08852776,0.0001028,53.2171,11.0586,87.4188,272.6921,0.00032133,4.832e-05,0.0,0 STARLINK-5028,1 53886U 22119A   23191.96959850  .00004832  00000-0  32133-3 0  9994,2 53886  53.2171  11.0586 0001028  87.4188 272.6921 15.08852776 44410,6917.841,95.437,540.417,538.995,0.0
53886.0,STARLINK-5028,PAYLOAD,2023-07-11 05:37:46,15.08841868,9.32e-05,53.2177,9.8715,74.7485,285.3611,0.00013335,1.835e-05,0.0,0 STARLINK-5028,1 53886U 22119A   23192.23456310  .00001835  00000-0  13335-3 0  9991,2 53886  53.2177   9.8715 0000932  74.7485 285.3611 15.08841868 44458,6917.875,95.437,540.384,539.095,0.0
53886.0,STARLINK-5028,PAYLOAD,2023-07-12 18:11:38,15.08845751,0.0001146,53.2178,3.0313,88.7469,271.3654,8.4598e-05,1.059e-05,0.0,0 STARLINK-5028,1 53886U 22119A   23193.75808136  .00001059  00000-0  84598-4 0  9994,2 53886  53.2178   3.0313 0001146  88.7469 271.3654 15.08845751 44686,6917.863,95.437,540.521,538.935,0.0
53886.0,STARLINK-5028,PAYLOAD,2023-07-13 16:27:02,15.08836482,0.000119,53.2181,358.8665,97.0641,263.0486,4.9049e-05,4.93e-06,0.0,0 STARLINK-5028,1 53886U 22119A   23194.68544648  .00000493  00000-0  49049-4 0  9995,2 53886  53.2181 358.8665 0001190  97.0641 263.0486 15.08836482 44823,6917.891,95.438,540.579,538.933,0.0
53886.0,STARLINK-5028,PAYLOAD,2023-07-14 17:53:12,15.08847857,0.0001085,53.2173,354.1102,95.4896,264.622,0.00020239,2.935e-05,0.0,0 STARLINK-5028,1 53886U 22119A   23195.74528379  .00002935  00000-0  20239-3 0  9998,2 53886  53.2173 354.1102 0001085  95.4896 264.6220 15.08847857 44984,6917.856,95.437,540.472,538.971,0.0
53886.0,STARLINK-5028,PAYLOAD,2023-07-15 03:25:31,15.08834999,0.0001072,53.2173,352.3252,97.5875,262.5239,2.3346e-05,8.4e-07,0.0,0 STARLINK-5028,1 53886U 22119A   23196.14272883  .00000084  00000-0  23346-4 0  9995,2 53886  53.2173 352.3252 0001072  97.5875 262.5239 15.08834999 45044,6917.896,95.438,540.502,539.019,0.0
53886.0,STARLINK-5028,PAYLOAD,2023-07-16 15:59:24,15.08843218,0.0001307,53.217,345.4867,82.1904,277.9237,0.00027395,4.075e-05,0.0,0 STARLINK-5028,1 53886U 22119A   23197.66625261  .00004075  00000-0  27395-3 0  9996,2 53886  53.2170 345.4867 0001307  82.1904 277.9237 15.08843218 45277,6917.871,95.437,540.64,538.831,0.0
53886.0,STARLINK-5028,PAYLOAD,2023-07-18 15:40:57,15.08846461,0.0001294,53.2176,336.5632,95.7898,264.3242,0.00012613,1.72e-05,0.0,0 STARLINK-5028,1 53886U 22119A   23199.65344752  .00001720  00000-0  12613-3 0  9991,2 53886  53.2176 336.5632 0001294  95.7898 264.3242 15.08846461 45573,6917.861,95.437,540.621,538.83,0.0
53886.0,STARLINK-5028,PAYLOAD,2023-07-18 20:27:06,15.08854406,0.0001213,53.2179,335.6719,88.4955,271.6176,0.00026146,3.877e-05,0.0,0 STARLINK-5028,1 53886U 22119A   23199.85216266  .00003877  00000-0  26146-3 0  9992,2 53886  53.2179 335.6719 0001213  88.4955 271.6176 15.08854406 45605,6917.836,95.437,540.54,538.862,0.0
53886.0,STARLINK-5028,PAYLOAD,2023-07-19 09:10:12,15.08832853,0.0001408,53.2168,333.2933,91.7528,268.3625,-5.9107e-05,-1.228e-05,0.0,0 STARLINK-5028,1 53886U 22119A   23200.38209374 -.00001228  00000-0 -59107-4 0  9999,2 53886  53.2168 333.2933 0001408  91.7528 268.3625 15.08832853 45686,6917.902,95.438,540.741,538.793,0.0
53886.0,STARLINK-5028,PAYLOAD,2023-07-20 18:33:18,15.08854336,0.0001354,53.2183,327.0504,76.2302,283.8841,0.00054354,8.376e-05,0.0,0 STARLINK-5028,1 53886U 22119A   23201.77313292  .00008376  00000-0  54354-3 0  9995,2 53886  53.2183 327.0504 0001354  76.2302 283.8841 15.08854336 45891,6917.837,95.437,540.638,538.765,0.0
53886.0,STARLINK-5028,PAYLOAD,2023-07-21 08:51:46,15.08847988,0.0001241,53.2181,324.3738,81.9154,278.1979,0.00027338,4.067e-05,0.0,0 STARLINK-5028,1 53886U 22119A   23202.36929383  .00004067  00000-0  27338-3 0  9990,2 53886  53.2181 324.3738 0001241  81.9154 278.1979 15.08847988 45985,6917.856,95.437,540.579,538.862,0.0
53886.0,STARLINK-5028,PAYLOAD,2023-07-23 16:30:17,15.08835355,0.0001622,53.2169,313.9701,78.6396,281.4779,6.044e-05,6.74e-06,0.0,0 STARLINK-5028,1 53886U 22119A   23204.68770071  .00000674  00000-0  60440-4 0  9997,2 53886  53.2169 313.9701 0001622  78.6396 281.4779 15.08835355 46755,6917.895,95.438,540.882,538.638,0.0
53886.0,STARLINK-5028,PAYLOAD,2023-07-25 11:25:41,15.08837115,0.0001744,53.2137,305.9355,111.1807,248.9371,-1.9426e-05,-5.97e-06,0.0,0 STARLINK-5028,1 53886U 22119A   23206.47617690 -.00000597  00000-0 -19426-4 0  9997,2 53886  53.2137 305.9355 0001744 111.1807 248.9371 15.08837115 47024,6917.889,95.438,540.961,538.548,0.0
53886.0,STARLINK-5028,PAYLOAD,2023-07-26 09:41:06,15.08818517,0.0001092,53.2158,301.7728,106.5035,253.6077,0.00086767,0.0001354,0.0,0 STARLINK-5028,1 53886U 22119A   23207.40354720  .00013540  00000-0  86767-3 0  9994,2 53886  53.2158 301.7728 0001092 106.5035 253.6077 15.08818517 47168,6917.946,95.439,540.566,539.056,0.0
53886.0,STARLINK-5028,PAYLOAD,2023-07-26 16:02:38,15.08844284,0.0001423,53.2141,300.5866,77.5171,282.5981,0.00036894,5.589e-05,0.0,0 STARLINK-5028,1 53886U 22119A   23207.66849829  .00005589  00000-0  36894-3 0  9991,2 53886  53.2141 300.5866 0001423  77.5171 282.5981 15.08844284 46788,6917.867,95.437,540.717,538.748,0.0
53886.0,STARLINK-5028,PAYLOAD,2023-07-27 17:28:47,15.08845912,8.65e-05,53.2165,295.8277,113.3983,246.71,0.00012744,1.741e-05,0.0,0 STARLINK-5028,1 53886U 22119A   23208.72833225  .00001741  00000-0  12744-3 0  9996,2 53886  53.2165 295.8277 0000865 113.3983 246.7100 15.08845912 46947,6917.862,95.437,540.326,539.129,0.0
